OBJECT_NAME,OBJECT_ID,EPOCH,MEAN_MOTION,ECCENTRICITY,INCLINATION,RA_OF_ASC_NODE,ARG_OF_PERICENTER,MEAN_ANOMALY,EPHEMERIS_TYPE,CLASSIFICATION_TYPE,NORAD_CAT_ID,ELEMENT_SET_NO,REV_AT_EPOCH,BSTAR,MEAN_MOTION_DOT,MEAN_MOTION_DDOT
LEO EXPRESS 2,2025-009BS,2026-05-26T05:05:03.488352,15.25695608,.0004684,97.4420,220.3573,108.7968,251.3778,0,U,62673,999,13324,.29518519E-3,.7451E-4,0
TRANSPORTER-12 OBJECT BT,2025-009BT,2026-05-26T05:01:30.725760,15.29615859,.0005342,97.4057,228.7265,47.4078,312.7612,0,U,62674,999,13320,.43009905E-3,.1228E-3,0
FLOCK 4G-36,2025-009BU,2026-05-26T04:08:14.009568,15.28838618,.00054957,97.4016,228.0223,55.5122,304.6636,0,U,62675,999,7553,.44100282E-3,.12296E-3,0
FOSSASAT-2E19 (TAT-E),2025-009BV,2026-05-26T04:52:00.236064,15.21017489,.00066033,97.3961,224.8739,65.5909,294.6016,0,U,62676,999,7535,.13505733E-3,.2929E-4,0
ELEVATION-1,2025-009BW,2026-05-26T04:20:00.002112,15.40687827,.00038713,97.3838,231.1434,55.4703,304.6908,0,U,62677,999,13343,.78183955E-3,.31921E-3,0
FLOCK 4G-15,2025-009BX,2026-05-26T04:21:29.109888,15.28870473,.00055036,97.4020,228.1672,51.9931,308.1806,0,U,62678,999,13318,.42279063E-3,.11796E-3,0
FLOCK 4G-30,2025-009BY,2026-05-26T05:15:10.668672,15.30460176,.00038987,97.3921,227.5733,69.5519,290.6140,0,U,62679,999,13318,.1473063E-2,.43522E-3,0
FLOCK 4G-18,2025-009BZ,2026-05-26T04:18:51.765120,15.29050159,.00060357,97.4013,227.9924,58.5162,301.6667,0,U,62680,999,13317,.15473233E-2,.43796E-3,0
FLOCK 4G-17,2025-009CA,2026-05-26T05:07:36.158016,15.29031964,.00056733,97.3927,227.7188,65.4386,294.7445,0,U,62681,999,13319,.4383654E-3,.12295E-3,0
FOREST-3,2025-009CB,2026-05-26T04:17:49.978752,15.24470205,.00064181,97.3907,225.9355,71.6485,288.5451,0,U,62682,999,13308,.27700611E-3,.6737E-4,0
IRIS-F2,2025-009CD,2026-05-26T04:09:20.566080,15.26043408,.00067349,97.3892,226.1915,76.8300,283.3690,0,U,62684,999,13310,.20939114E-3,.5321E-4,0
FLOCK 4G-33,2025-009CE,2026-05-26T04:56:46.339296,15.25166060,.00066529,97.3950,226.3336,59.7171,300.4725,0,U,62685,999,7545,.26572872E-3,.6596E-4,0
FOSSASAT-2E18 (TAT-A),2025-009CF,2026-05-26T03:46:33.758688,15.20912478,.000738,97.3974,224.8909,63.0137,297.1851,0,U,62686,999,7534,.13676347E-3,.2958E-4,0
BLUEBON,2025-009CH,2026-05-26T05:12:04.019616,15.30339858,.00028468,97.3983,229.3787,80.7655,279.3907,0,U,62688,999,7561,.29282487E-3,.8519E-4,0
TRANSPORTER-12 OBJECT CL,2025-009CL,2026-05-26T05:21:06.073344,15.44170281,.00009457,97.3769,231.0423,259.6604,100.4538,0,U,62691,999,7580,.89137678E-3,.40932E-3,0
LEMUR-2-WILSON,2025-009CP,2026-05-26T05:02:39.942528,14.95051021,.00047048,97.7026,225.0622,106.8621,253.3116,0,U,62694,999,7407,.19525194E-3,.2081E-4,0
CONNECTA IOT-8,2025-009CQ,2026-05-26T04:35:59.352288,14.93152367,.00042362,97.7079,224.4828,81.8383,278.3317,0,U,62695,999,7401,.76213063E-4,.739E-5,0
LEMUR-2-STAR-FOX,2025-009CR,2026-05-26T04:18:41.701248,15.02104261,.00020297,97.6909,227.9560,176.3020,183.8220,0,U,62696,999,7425,.70042192E-3,.915E-4,0
IRIDE-MS2-HEO-1,2025-009CS,2026-05-26T06:20:13.880256,14.94305163,.0003844,97.7045,224.9749,86.1042,274.0617,0,U,62697,999,7406,.1471964E-3,.1525E-4,0
ICEYE-X42,2025-009CT,2026-05-25T22:31:58.508832,14.91870442,.00017521,97.7398,224.6533,100.1409,260.0008,0,U,62698,999,7397,.17704676E-3,.1733E-4,0
LEMUR-2-ARIANNA,2025-009CU,2026-05-26T04:15:49.245984,15.02065332,.0002279,97.6853,227.7455,188.8984,171.2200,0,U,62699,999,7425,.79432102E-3,.10376E-3,0
ICEYE-X41,2025-009CV,2026-05-26T04:59:50.264160,14.96583292,.00027859,97.7064,226.0568,99.2276,260.9261,0,U,62700,999,7412,.29444125E-3,.3295E-4,0
FIREFLY-1,2025-009CW,2026-05-26T05:47:17.943360,14.92802123,.00051728,97.7069,224.8273,51.4463,308.7219,0,U,62701,999,7404,.15232876E-3,.152E-4,0
NORSAT 4,2025-009CX,2026-05-26T05:24:27.422496,14.94949878,.00031936,97.7047,225.3161,104.2913,255.8662,0,U,62702,999,7408,.20919508E-3,.2228E-4,0
CONNECTA IOT-5,2025-009CY,2026-05-26T04:24:28.883232,14.94108584,.00036743,97.7027,225.2028,119.3511,240.8076,0,U,62703,999,7408,.10596541E-3,.1076E-4,0
FIREFLY-2,2025-009CZ,2026-05-26T05:15:50.045472,14.92756533,.0006978,97.7028,224.6023,141.7746,218.3969,0,U,62704,999,7404,.14101179E-3,.1402E-4,0
ICEYE-X45,2025-009DA,2026-05-26T04:40:36.738624,15.00859157,.00009043,97.8285,232.7228,83.8121,276.3205,0,U,62705,999,7438,.1924122E-3,.2385E-4,0
LEMUR-2-ALISIA,2025-009DB,2026-05-26T05:26:08.941632,15.02378667,.00006756,97.6975,228.5469,329.0304,31.0880,0,U,62706,999,9686,.71099175E-3,.9357E-4,0
ICEYE-X44,2025-009DC,2026-05-26T05:06:23.096448,14.95859785,.00017476,97.7052,225.6885,152.0965,208.0350,0,U,62707,999,9665,.29930777E-3,.3288E-4,0
CENTAURI-7,2025-009DD,2026-05-26T05:08:44.362176,14.97624224,.00003782,97.7083,226.7694,96.6299,263.4966,0,U,62708,999,7417,.30683493E-3,.353E-4,0
CONNECTA IOT-6,2025-009DE,2026-05-26T03:54:12.426048,14.94157750,.00016894,97.7028,224.9505,151.7761,208.3551,0,U,62709,999,7407,.13764424E-3,.1417E-4,0
FIREFLY-3,2025-009DF,2026-05-26T06:20:18.908736,14.92822353,.00027424,97.7060,224.8857,217.7406,142.3622,0,U,62710,999,7406,.11191661E-3,.1102E-4,0
LEMUR-2-ROUNDTRIPPER,2025-009DG,2026-05-26T04:46:44.878656,15.03367155,.0003649,97.7227,228.9194,191.8776,168.2364,0,U,62711,999,7432,.65532943E-3,.8849E-4,0
LEMUR-2-MYNAMEISJEFF,2025-009DH,2026-05-26T04:44:42.050688,15.03367010,.00016045,97.7275,229.2853,229.7880,130.3205,0,U,62712,999,7432,.68213509E-3,.9213E-4,0
SATGUS,2025-009DJ,2026-05-26T04:46:09.208416,15.00883505,.0008672,97.6985,227.7850,176.4555,183.6732,0,U,62713,999,7426,.58005942E-3,.7331E-4,0
CENTAURI-8,2025-009DK,2026-05-26T04:12:13.665024,14.97598864,.00018084,97.7054,226.5795,147.3599,212.7735,0,U,62714,999,7418,.38564885E-3,.4449E-4,0
CONNECTA IOT-7,2025-009DL,2026-05-26T04:54:20.515968,14.94128590,.00002358,97.7083,225.3703,135.4549,224.6690,0,U,62715,999,7406,.69049266E-4,.682E-5,0
PRSC-EO1,2025-012A,2026-05-25T07:30:44.312832,15.17754378,.00049005,97.4229,218.2191,354.6912,5.4269,0,U,62725,999,7472,.3315491E-3,.663E-4,0
2025-012B,2025-012B,2026-05-26T05:28:30.215136,15.20979765,.00087229,97.4238,219.6079,4.4148,355.7163,0,U,62726,999,7491,.24220132E-3,.5303E-4,0
2025-012C,2025-012C,2026-05-26T06:31:58.346976,15.26986715,.00065894,97.4266,221.8859,355.2832,4.8344,0,U,62727,999,7504,.45655343E-3,.12035E-3,0
2025-013A,2025-013A,2026-05-26T06:17:35.003616,15.33790763,.00086394,97.6388,324.1551,16.9770,343.1759,0,U,62729,999,7459,.96726094E-3,.31657E-3,0
2025-013B,2025-013B,2026-05-26T07:02:50.618688,15.11151888,.00148339,97.6548,315.6548,85.9939,274.2986,0,U,62730,999,7402,.24910393E-3,.4122E-4,0
2025-013C,2025-013C,2026-05-26T06:41:46.764672,15.11123038,.00157171,97.6500,315.3585,89.0362,271.2668,0,U,62731,999,7402,.25662795E-3,.4246E-4,0
2025-013D,2025-013D,2026-05-26T07:14:21.272640,15.11168417,.00100789,97.6533,315.6978,103.9537,256.2814,0,U,62732,999,7397,.22152208E-3,.3655E-4,0
2025-013E,2025-013E,2026-05-26T07:11:12.123168,15.10915569,.00100647,97.6548,315.6432,93.5238,266.7143,0,U,62733,999,7391,.22723347E-3,.3724E-4,0
STARLINK-32806,2025-014A,2026-05-26T05:27:07.627968,15.27596445,.00012024,42.9999,76.6831,264.8503,95.2211,0,U,62735,999,7511,.10334385E-2,.28299E-3,0
STARLINK-32329,2025-014B,2026-05-26T04:59:21.660576,15.27610588,.00014279,43.0027,76.5314,261.2246,98.8444,0,U,62736,999,7511,.76702195E-3,.20924E-3,0
STARLINK-32774,2025-014C,2026-05-25T23:59:33.814752,15.27610230,.00014362,43.0023,81.0139,270.0535,90.0152,0,U,62737,999,7504,.78444915E-3,.21407E-3,0
STARLINK-32802,2025-014D,2026-05-26T04:29:45.706848,15.27601064,.0001562,43.0025,76.3769,271.4848,88.5825,0,U,62738,999,7511,.78774985E-3,.21492E-3,0
STARLINK-32796,2025-014E,2026-05-26T04:26:03.857568,15.27587042,.00014582,43.0018,76.3608,269.5247,90.5437,0,U,62739,999,7511,.86736126E-3,.23688E-3,0
STARLINK-32805,2025-014F,2026-05-26T04:15:10.544832,15.27587379,.00013133,43.0010,77.1716,261.3941,98.6762,0,U,62740,999,7510,.94006851E-3,.25703E-3,0
STARLINK-32770,2025-014G,2026-05-26T04:44:33.752832,15.27600193,.00012719,43.0032,76.4599,264.1600,95.9107,0,U,62741,999,7511,.62090475E-3,.16873E-3,0
STARLINK-32775,2025-014H,2026-05-26T05:01:12.857376,15.27607762,.00017567,43.0038,76.5412,258.2989,101.7666,0,U,62742,999,7511,.84581638E-3,.23106E-3,0
STARLINK-32800,2025-014J,2026-05-26T05:53:29.040864,15.27596214,.00014614,42.9997,83.7376,266.5514,93.5170,0,U,62743,999,7503,.10943625E-2,.2999E-3,0
STARLINK-32758,2025-014K,2026-05-25T22:43:53.607072,15.27593573,.00015654,43.0011,81.4758,227.1811,132.8909,0,U,62744,999,7503,.49529661E-3,.13398E-3,0
STARLINK-32746,2025-014L,2026-05-26T04:20:30.403680,15.27556605,.0001464,43.0022,76.3301,264.4526,95.6159,0,U,62745,999,7511,.9650574E-3,.2637E-3,0
STARLINK-32780,2025-014M,2026-05-26T04:13:19.264224,15.27594160,.00012303,43.0008,77.1555,270.1117,89.9594,0,U,62746,999,7510,.95863098E-3,.26223E-3,0
STARLINK-32765,2025-014N,2026-05-26T02:07:42.379680,15.27587931,.00008813,42.9997,77.3536,247.6449,112.4309,0,U,62747,999,7509,.52724425E-3,.14278E-3,0
STARLINK-32762,2025-014P,2026-05-26T04:45:43.140672,15.27600168,.00014303,43.0017,79.9229,266.9434,93.1254,0,U,62748,999,7507,.74178682E-3,.20219E-3,0
STARLINK-32761,2025-014Q,2026-05-26T04:49:24.939840,15.27591645,.00010219,43.0024,79.9416,266.8705,93.2029,0,U,62749,999,7507,.32259572E-3,.8629E-4,0
STARLINK-32763,2025-014R,2026-05-26T04:40:51.692736,15.27592047,.00010586,43.0025,76.4332,257.1042,102.9692,0,U,62750,999,7511,.35203793E-3,.9441E-4,0
STARLINK-32759,2025-014S,2026-05-26T05:35:40.871616,15.27586924,.00010457,42.9988,80.1872,262.4003,97.6730,0,U,62751,999,7507,.48959684E-3,.13238E-3,0
STARLINK-32756,2025-014T,2026-05-26T04:17:00.619296,15.27573494,.00017541,43.0007,77.1746,266.9637,93.1013,0,U,62752,999,7510,.30658045E-3,.8182E-4,0
STARLINK-32751,2025-014U,2026-05-26T04:07:46.126560,15.27598244,.00013481,42.9998,77.1265,269.0770,90.9927,0,U,62753,999,7510,.79103392E-3,.21581E-3,0
